{
    "links": {
        "self": "http://www.neowsapp.com/rest/v1/neo/3765944?api_key=iIulBulltgU6a56xZRHN4H3l9WmuAYTsLGpBGhQ2"
    },
    "id": "3765944",
    "neo_reference_id": "3765944",
    "name": "(2016 XA21)",
    "designation": "2016 XA21",
    "nasa_jpl_url": "http://ssd.jpl.nasa.gov/sbdb.cgi?sstr=3765944",
    "absolute_magnitude_h": 25.7,
    "estimated_diameter": {
        "kilometers": {
            "estimated_diameter_min": 0.0192555078,
            "estimated_diameter_max": 0.0430566244
        },
        "meters": {
            "estimated_diameter_min": 19.2555078188,
            "estimated_diameter_max": 43.0566244241
        },
        "miles": {
            "estimated_diameter_min": 0.0119648141,
            "estimated_diameter_max": 0.0267541378
        },
        "feet": {
            "estimated_diameter_min": 63.1742402722,
            "estimated_diameter_max": 141.2618956756
        }
    },
    "is_potentially_hazardous_asteroid": false,
    "close_approach_data": [
        {
            "close_approach_date": "2016-12-13",
            "close_approach_date_full": "2016-Dec-13 17:25",
            "epoch_date_close_approach": 1481649900000,
            "relative_velocity": {
                "kilometers_per_second": "5.8192633293",
                "kilometers_per_hour": "20949.3479854639",
                "miles_per_hour": "13017.1101413012"
            },
            "miss_distance": {
                "astronomical": "0.0324077459",
                "lunar": "12.6066131551",
                "kilometers": "4848129.758141233",
                "miles": "3012488.1407776954"
            },
            "orbiting_body": "Earth"
        }
    ],
    "orbital_data": {
        "orbit_id": "6",
        "orbit_determination_date": "2017-04-06 08:21:31",
        "first_observation_date": "2016-12-09",
        "last_observation_date": "2017-01-03",
        "data_arc_in_days": 25,
        "observations_used": 39,
        "orbit_uncertainty": "7",
        "minimum_orbit_intersection": ".0263685",
        "jupiter_tisserand_invariant": "3.829",
        "epoch_osculation": "2459000.5",
        "eccentricity": ".4641170152727236",
        "semi_major_axis": "1.882494779643314",
        "inclination": "1.208253691158942",
        "ascending_node_longitude": "110.6579445731815",
        "orbital_period": "943.4070072010367",
        "perihelion_distance": "1.008796921248776",
        "perihelion_argument": "340.1312000426378",
        "aphelion_distance": "2.756192638037853",
        "perihelion_time": "2458686.579021499494",
        "mean_anomaly": "119.7908764696083",
        "mean_motion": ".3815956392650424",
        "equinox": "J2000",
        "orbit_class": {
            "orbit_class_type": "APO",
            "orbit_class_description": "Near-Earth asteroid orbits which cross the Earth’s orbit similar to that of 1862 Apollo",
            "orbit_class_range": "a (semi-major axis) > 1.0 AU; q (perihelion) < 1.017 AU"
        }
    },
    "is_sentry_object": false
}